STARLINK-36073          
1 66844U 25280Z   25344.75002315 -.01691191  00000+0 -71928-2 0  9994
2 66844  69.9926 204.5030 0003729 269.5704 314.9537 15.87818843  2589
STARLINK-36068          
1 66845U 25280AA  25344.75002315 -.01705839  00000+0 -72002-2 0  9994
2 66845  69.9924 204.4949 0003800 268.3551 322.8945 15.87995314  2583
STARLINK-36055          
1 66846U 25280AB  25344.75002315 -.01701487  00000+0 -72117-2 0  9997
2 66846  69.9925 204.4985 0003748 269.1010 319.0072 15.87905661  2580
STARLINK-36061          
1 66847U 25280AC  25344.75002315 -.01703472  00000+0 -72049-2 0  9998
2 66847  69.9924 204.4971 0003761 269.5352 320.0966 15.87951104  2535
STARLINK-36091          
1 66848U 25281A   25344.66668981 -.00965288  29244-3 -23664-2 0  9995
2 66848  43.0014 135.3114 0001692 280.9350 204.3448 15.95185766  2469
STARLINK-36102          
1 66849U 25281B   25344.66668981 -.00966596  29334-3 -23618-2 0  9998
2 66849  43.0015 135.3060 0001605 279.0783 208.0732 15.95247309  2463
STARLINK-36105          
1 66850U 25281C   25344.66668981 -.00967539  29414-3 -23522-2 0  9991
2 66850  43.0013 135.3001 0001563 273.8690 215.7585 15.95340432  2462
STARLINK-36094          
1 66851U 25281D   25344.66668981 -.00981359  30208-3 -23763-2 0  9998
2 66851  43.0013 135.2954 0001667 281.4235 210.0940 15.95416525  2464
STARLINK-35992          
1 66852U 25281E   25344.66668981 -.00996651  31096-3 -24039-2 0  9993
2 66852  43.0015 135.2908 0001624 275.4518 217.8803 15.95490858  2460
STARLINK-35986          
1 66853U 25281F   25344.66668981 -.01038402  33553-3 -24896-2 0  9997
2 66853  43.0015 135.2841 0001635 275.5982 220.3793 15.95608593  2469
STARLINK-36087          
1 66854U 25281G   25344.66668981 -.01085412  36419-3 -25875-2 0  9993
2 66854  43.0014 135.2774 0001626 269.4535 229.0445 15.95721326  2460
STARLINK-36090          
1 66855U 25281H   25344.66668981 -.01121625  38703-3 -26621-2 0  9999
2 66855  43.0015 135.2723 0001596 269.5680 230.9611 15.95808262  2465
